[{"OBJECT_NAME":"STARLINK-32678","OBJECT_ID":"2024-239J","EPOCH":"2026-03-09T15:15:34.835040","MEAN_MOTION":15.30198558,"ECCENTRICITY":8.08e-5,"INCLINATION":53.1608,"RA_OF_ASC_NODE":181.5302,"ARG_OF_PERICENTER":116.9668,"MEAN_ANOMALY":243.1415,"EPHEMERIS_TYPE":0,"CLASSIFICATION_TYPE":"U","NORAD_CAT_ID":62309,"ELEMENT_SET_NO":999,"REV_AT_EPOCH":6955,"BSTAR":0.00068165,"MEAN_MOTION_DOT":0.00019883,"MEAN_MOTION_DDOT":0},{"OBJECT_NAME":"OBJECT BD","OBJECT_ID":"2025-313BD","EPOCH":"2026-03-09T15:06:44.992224","MEAN_MOTION":15.3000236,"ECCENTRICITY":0.00072867,"INCLINATION":97.397,"RA_OF_ASC_NODE":145.285,"ARG_OF_PERICENTER":333.4514,"MEAN_ANOMALY":26.6352,"EPHEMERIS_TYPE":0,"CLASSIFICATION_TYPE":"U","NORAD_CAT_ID":67299,"ELEMENT_SET_NO":999,"REV_AT_EPOCH":1083,"BSTAR":0.0027633805,"MEAN_MOTION_DOT":0.0008101,"MEAN_MOTION_DDOT":0}]
